{
  "type": "FeatureCollection",
  "features": [
    {
      "type": "Feature",
      "properties": {
        "norad_id": 66487,
        "name": "STARLINK-34733",
        "group": "last-30-days",
        "lat": -34.93981835889281,
        "lon": 122.6564647988343,
        "alt_km": 374.26353669495165,
        "timestamp": "2025-12-04T21:36:14.652133+00:00",
        "meta_object_name": "STARLINK-34733",
        "meta_object_id": "2025-263C",
        "meta_epoch": "2025-12-04T14:00:01.000224",
        "meta_mean_motion": 15.667801,
        "meta_eccentricity": 0.00016357,
        "meta_inclination": 42.9989,
        "meta_ra_of_asc_node": 173.1245,
        "meta_arg_of_pericenter": 258.8643,
        "meta_mean_anomaly": 55.6419,
        "meta_ephemeris_type": 0,
        "meta_classification_type": "U",
        "meta_norad_cat_id": 66487,
        "meta_element_set_no": 999,
        "meta_rev_at_epoch": 432,
        "meta_bstar": -0.021131499,
        "meta_mean_motion_dot": -0.02016602,
        "meta_mean_motion_ddot": 0,
        "tle_line1": "1 66487U 25263C   25338.58334491 -.02016602  00000+0 -21131-1 0  9994",
        "tle_line2": "2 66487  42.9989 173.1245 0001635 258.8643  55.6419 15.66780100  4321"
      },
      "geometry": {
        "type": "Point",
        "coordinates": [
          122.6564647988343,
          -34.93981835889281
        ]
      }
    },
    {
      "type": "Feature",
      "properties": {
        "norad_id": 66488,
        "name": "STARLINK-35515",
        "group": "last-30-days",
        "lat": -34.05900361187038,
        "lon": 124.71331819378653,
        "alt_km": 374.2418493419027,
        "timestamp": "2025-12-04T21:36:14.652143+00:00",
        "meta_object_name": "STARLINK-35515",
        "meta_object_id": "2025-263D",
        "meta_epoch": "2025-12-04T14:00:01.000224",
        "meta_mean_motion": 15.6678127,
        "meta_eccentricity": 0.00015169,
        "meta_inclination": 42.9989,
        "meta_ra_of_asc_node": 173.1195,
        "meta_arg_of_pericenter": 262.8017,
        "meta_mean_anomaly": 53.6219,
        "meta_ephemeris_type": 0,
        "meta_classification_type": "U",
        "meta_norad_cat_id": 66488,
        "meta_element_set_no": 999,
        "meta_rev_at_epoch": 432,
        "meta_bstar": -0.02115016,
        "meta_mean_motion_dot": -0.02018152,
        "meta_mean_motion_ddot": 0,
        "tle_line1": "1 66488U 25263D   25338.58334491 -.02018152  00000+0 -21150-1 0  9998",
        "tle_line2": "2 66488  42.9989 173.1195 0001516 262.8017  53.6219 15.66781270  4329"
      },
      "geometry": {
        "type": "Point",
        "coordinates": [
          124.71331819378653,
          -34.05900361187038
        ]
      }
    },
    {
      "type": "Feature",
      "properties": {
        "norad_id": 66489,
        "name": "STARLINK-35696",
        "group": "last-30-days",
        "lat": -33.14322535524405,
        "lon": 126.72936018020681,
        "alt_km": 374.25156190517464,
        "timestamp": "2025-12-04T21:36:14.652157+00:00",
        "meta_object_name": "STARLINK-35696",
        "meta_object_id": "2025-263E",
        "meta_epoch": "2025-12-04T14:00:01.000224",
        "meta_mean_motion": 15.66777538,
        "meta_eccentricity": 0.00016192,
        "meta_inclination": 42.9988,
        "meta_ra_of_asc_node": 173.1144,
        "meta_arg_of_pericenter": 257.9116,
        "meta_mean_anomaly": 60.43,
        "meta_ephemeris_type": 0,
        "meta_classification_type": "U",
        "meta_norad_cat_id": 66489,
        "meta_element_set_no": 999,
        "meta_rev_at_epoch": 432,
        "meta_bstar": -0.021094209,
        "meta_mean_motion_dot": -0.02013279,
        "meta_mean_motion_ddot": 0,
        "tle_line1": "1 66489U 25263E   25338.58334491 -.02013279  00000+0 -21094-1 0  9991",
        "tle_line2": "2 66489  42.9988 173.1144 0001619 257.9116  60.4300 15.66777538  4321"
      },
      "geometry": {
        "type": "Point",
        "coordinates": [
          126.72936018020681,
          -33.14322535524405
        ]
      }
    },
    {
      "type": "Feature",
      "properties": {
        "norad_id": 66490,
        "name": "STARLINK-35693",
        "group": "last-30-days",
        "lat": -32.195807598964464,
        "lon": 128.7031577342319,
        "alt_km": 374.1963370886788,
        "timestamp": "2025-12-04T21:36:14.652167+00:00",
        "meta_object_name": "STARLINK-35693",
        "meta_object_id": "2025-263F",
        "meta_epoch": "2025-12-04T14:00:01.000224",
        "meta_mean_motion": 15.66778821,
        "meta_eccentricity": 0.00016706,
        "meta_inclination": 42.999,
        "meta_ra_of_asc_node": 173.1096,
        "meta_arg_of_pericenter": 258.5752,
        "meta_mean_anomaly": 61.6842,
        "meta_ephemeris_type": 0,
        "meta_classification_type": "U",
        "meta_norad_cat_id": 66490,
        "meta_element_set_no": 999,
        "meta_rev_at_epoch": 432,
        "meta_bstar": -0.021133203,
        "meta_mean_motion_dot": -0.0201668,
        "meta_mean_motion_ddot": 0,
        "tle_line1": "1 66490U 25263F   25338.58334491 -.02016680  00000+0 -21133-1 0  9996",
        "tle_line2": "2 66490  42.9990 173.1096 0001670 258.5752  61.6842 15.66778821  4322"
      },
      "geometry": {
        "type": "Point",
        "coordinates": [
          128.7031577342319,
          -32.195807598964464
        ]
      }
    },
    {
      "type": "Feature",
      "properties": {
        "norad_id": 66491,
        "name": "STARLINK-35663",
        "group": "last-30-days",
        "lat": -30.213541246252326,
        "lon": 132.52451437921297,
        "alt_km": 374.1263857242848,
        "timestamp": "2025-12-04T21:36:14.652177+00:00",
        "meta_object_name": "STARLINK-35663",
        "meta_object_id": "2025-263G",
        "meta_epoch": "2025-12-04T14:00:01.000224",
        "meta_mean_motion": 15.66777295,
        "meta_eccentricity": 0.00016731,
        "meta_inclination": 42.9991,
        "meta_ra_of_asc_node": 173.0998,
        "meta_arg_of_pericenter": 259.1964,
        "meta_mean_anomaly": 64.8961,
        "meta_ephemeris_type": 0,
        "meta_classification_type": "U",
        "meta_norad_cat_id": 66491,
        "meta_element_set_no": 999,
        "meta_rev_at_epoch": 432,
        "meta_bstar": -0.021089963,
        "meta_mean_motion_dot": -0.02012949,
        "meta_mean_motion_ddot": 0,
        "tle_line1": "1 66491U 25263G   25338.58334491 -.02012949  00000+0 -21090-1 0  9993",
        "tle_line2": "2 66491  42.9991 173.0998 0001673 259.1964  64.8961 15.66777295  4320"
      },
      "geometry": {
        "type": "Point",
        "coordinates": [
          132.52451437921297,
          -30.213541246252326
        ]
      }
    },
    {
      "type": "Feature",
      "properties": {
        "norad_id": 66492,
        "name": "STARLINK-35673",
        "group": "last-30-days",
        "lat": -29.18123724360529,
        "lon": 134.37674540950746,
        "alt_km": 374.0742003585474,
        "timestamp": "2025-12-04T21:36:14.652188+00:00",
        "meta_object_name": "STARLINK-35673",
        "meta_object_id": "2025-263H",
        "meta_epoch": "2025-12-04T14:00:01.000224",
        "meta_mean_motion": 15.66779636,
        "meta_eccentricity": 0.00017464,
        "meta_inclination": 42.9991,
        "meta_ra_of_asc_node": 173.095,
        "meta_arg_of_pericenter": 258.6068,
        "meta_mean_anomaly": 67.3996,
        "meta_ephemeris_type": 0,
        "meta_classification_type": "U",
        "meta_norad_cat_id": 66492,
        "meta_element_set_no": 999,
        "meta_rev_at_epoch": 432,
        "meta_bstar": -0.021104557,
        "meta_mean_motion_dot": -0.02014402,
        "meta_mean_motion_ddot": 0,
        "tle_line1": "1 66492U 25263H   25338.58334491 -.02014402  00000+0 -21105-1 0  9997",
        "tle_line2": "2 66492  42.9991 173.0950 0001746 258.6068  67.3996 15.66779636  4326"
      },
      "geometry": {
        "type": "Point",
        "coordinates": [
          134.37674540950746,
          -29.18123724360529
        ]
      }
    },
    {
      "type": "Feature",
      "properties": {
        "norad_id": 66493,
        "name": "STARLINK-35597",
        "group": "last-30-days",
        "lat": -28.123429949990573,
        "lon": 136.19196984098033,
        "alt_km": 374.0148533609663,
        "timestamp": "2025-12-04T21:36:14.652199+00:00",
        "meta_object_name": "STARLINK-35597",
        "meta_object_id": "2025-263J",
        "meta_epoch": "2025-12-04T14:00:01.000224",
        "meta_mean_motion": 15.6677809,
        "meta_eccentricity": 0.00016663,
        "meta_inclination": 42.999,
        "meta_ra_of_asc_node": 173.0901,
        "meta_arg_of_pericenter": 261.5518,
        "meta_mean_anomaly": 66.375,
        "meta_ephemeris_type": 0,
        "meta_classification_type": "U",
        "meta_norad_cat_id": 66493,
        "meta_element_set_no": 999,
        "meta_rev_at_epoch": 432,
        "meta_bstar": -0.021101973,
        "meta_mean_motion_dot": -0.02014008,
        "meta_mean_motion_ddot": 0,
        "tle_line1": "1 66493U 25263J   25338.58334491 -.02014008  00000+0 -21102-1 0  9997",
        "tle_line2": "2 66493  42.9990 173.0901 0001666 261.5518  66.3750 15.66778090  4326"
      },
      "geometry": {
        "type": "Point",
        "coordinates": [
          136.19196984098033,
          -28.123429949990573
        ]
      }
    }
  ]
}